COMMENT,ORIGINATOR,NORAD_CAT_ID,OBJECT_NAME,OBJECT_TYPE,CLASSIFICATION_TYPE,INTLDES,EPOCH,EPOCH_MICROSECONDS,MEAN_MOTION,ECCENTRICITY,INCLINATION,RA_OF_ASC_NODE,ARG_OF_PERICENTER,MEAN_ANOMALY,EPHEMERIS_TYPE,ELEMENT_SET_NO,REV_AT_EPOCH,BSTAR,MEAN_MOTION_DOT,MEAN_MOTION_DDOT,FILE,TLE_LINE0,TLE_LINE1,TLE_LINE2,OBJECT_ID,OBJECT_NUMBER,SEMIMAJOR_AXIS,PERIOD,APOGEE,PERIGEE,DECAYED
"GENERATED VIA SPACETRACK.ORG API","18 SPCS","55089","SPACEBEE-163","PAYLOAD","U","23001CJ","2023-01-18 19:15:05","277024","15.13898002","0.0016457","97.5017","80.6887","158.6467","201.5455","0","999","245","0.0010623","0.00019263","0","3754019","0 SPACEBEE-163","1 55089U 23001CJ  23018.80214441  .00019263  00000-0  10623-2 0  9996","2 55089  97.5017  80.6887 0016457 158.6467 201.5455 15.13898002  2455","2023-001CJ","55089","6902.463","95.119","535.688","512.969","0"
"GENERATED VIA SPACETRACK.ORG API","18 SPCS","55089","SPACEBEE-163","PAYLOAD","U","23001CJ","2023-01-18 20:50:16","41408","15.13899046","0.0016464","97.5017","80.7539","158.4481","201.7447","0","999","246","0.0010152","0.00018404","0","3754254","0 SPACEBEE-163","1 55089U 23001CJ  23018.86824122  .00018404  00000-0  10152-2 0  9998","2 55089  97.5017  80.7539 0016464 158.4481 201.7447 15.13899046  2465","2023-001CJ","55089","6902.460","95.119","535.689","512.961","0"
"GENERATED VIA SPACETRACK.ORG API","18 SPCS","55089","SPACEBEE-163","PAYLOAD","U","23001CJ","2023-01-19 12:42:03","60576","15.1392499","0.001648","97.5015","81.4049","156.3438","203.8554","0","999","256","0.0011011","0.00019986","0","3754973","0 SPACEBEE-163","1 55089U 23001CJ  23019.52920209  .00019986  00000-0  11011-2 0  9996","2 55089  97.5015  81.4049 0016480 156.3438 203.8554 15.13924990  2564","2023-001CJ","55089","6902.381","95.117","535.621","512.871","0"
"GENERATED VIA SPACETRACK.ORG API","18 SPCS","55089","SPACEBEE-163","PAYLOAD","U","23001CJ","2023-01-20 01:23:27","962592","15.13946548","0.001646","97.5013","81.9256","154.584","205.6204","0","999","264","0.0011401","0.00020711","0","3755581","0 SPACEBEE-163","1 55089U 23001CJ  23020.05796253  .00020711  00000-0  11401-2 0  9997","2 55089  97.5013  81.9256 0016460 154.5840 205.6204 15.13946548  2646","2023-001CJ","55089","6902.316","95.116","535.542","512.819","0"
"GENERATED VIA SPACETRACK.ORG API","18 SPCS","55089","SPACEBEE-163","PAYLOAD","U","23001CJ","2023-01-20 09:19:20","720928","15.13957278","0.0016476","97.5013","82.2512","153.5042","206.7035","0","999","269","0.0010598","0.00019249","0","3755973","0 SPACEBEE-163","1 55089U 23001CJ  23020.38843427  .00019249  00000-0  10598-2 0  9999","2 55089  97.5013  82.2512 0016476 153.5042 206.7035 15.13957278  2696","2023-001CJ","55089","6902.283","95.115","535.520","512.776","0"
"GENERATED VIA SPACETRACK.ORG API","18 SPCS","55089","SPACEBEE-163","PAYLOAD","U","23001CJ","2023-01-21 05:56:36","679200","15.13994392","0.001652","97.501","83.0974","150.5009","209.7158","0","999","282","0.0011562","0.00021034","0","3756809","0 SPACEBEE-163","1 55089U 23001CJ  23021.24764675  .00021034  00000-0  11562-2 0  9999","2 55089  97.5010  83.0974 0016520 150.5009 209.7158 15.13994392  2826","2023-001CJ","55089","6902.170","95.113","535.438","512.633","0"
"GENERATED VIA SPACETRACK.ORG API","18 SPCS","55089","SPACEBEE-163","PAYLOAD","U","23001CJ","2023-01-22 13:40:02","262432","15.14052712","0.0016697","97.5004","84.399","145.716","214.5153","0","999","302","0.0011122","0.00020263","0","3757931","0 SPACEBEE-163","1 55089U 23001CJ  23022.56947063  .00020263  00000-0  11122-2 0  9994","2 55089  97.5004  84.3990 0016697 145.7160 214.5153 15.14052712  3024","2023-001CJ","55089","6901.993","95.109","535.382","512.334","0"
"GENERATED VIA SPACETRACK.ORG API","18 SPCS","55089","SPACEBEE-163","PAYLOAD","U","23001CJ","2023-01-23 18:13:03","648000","15.14100679","0.0016757","97.5","85.5708","141.4039","218.8394","0","999","320","0.0010705","0.00019526","0","3759185","0 SPACEBEE-163","1 55089U 23001CJ  23023.75907000  .00019526  00000-0  10705-2 0  9999","2 55089  97.5000  85.5708 0016757 141.4039 218.8394 15.14100679  3205","2023-001CJ","55089","6901.847","95.106","535.278","512.147","0"
"GENERATED VIA SPACETRACK.ORG API","18 SPCS","55089","SPACEBEE-163","PAYLOAD","U","23001CJ","2023-01-25 05:06:41","283648","15.14146903","0.0016858","97.4993","87.0029","136.7049","223.5511","0","999","342","0.00076384","0.00013922","0","3760746","0 SPACEBEE-163","1 55089U 23001CJ  23025.21297782  .00013922  00000-0  76384-3 0  9991","2 55089  97.4993  87.0029 0016858 136.7049 223.5511 15.14146903  3426","2023-001CJ","55089","6901.707","95.103","535.207","511.937","0"
"GENERATED VIA SPACETRACK.ORG API","18 SPCS","55089","SPACEBEE-163","PAYLOAD","U","23001CJ","2023-01-25 13:02:30","272352","15.14156173","0.0016836","97.4993","87.3285","135.6415","224.6168","0","999","347","0.0007755","0.00014139","0","3761297","0 SPACEBEE-163","1 55089U 23001CJ  23025.54340593  .00014139  00000-0  77550-3 0  9993","2 55089  97.4993  87.3285 0016836 135.6415 224.6168 15.14156173  3479","2023-001CJ","55089","6901.679","95.102","535.163","511.924","0"
"GENERATED VIA SPACETRACK.ORG API","18 SPCS","55089","SPACEBEE-163","PAYLOAD","U","23001CJ","2023-01-25 17:47:59","575200","15.14162094","0.0016821","97.4992","87.5238","135.0017","225.2581","0","999","350","0.00078564","0.00014328","0","3761360","0 SPACEBEE-163","1 55089U 23001CJ  23025.74166175  .00014328  00000-0  78564-3 0  9993","2 55089  97.4992  87.5238 0016821 135.0017 225.2581 15.14162094  3503","2023-001CJ","55089","6901.661","95.102","535.135","511.916","0"
"GENERATED VIA SPACETRACK.ORG API","18 SPCS","55089","SPACEBEE-163","PAYLOAD","U","23001CJ","2023-01-26 08:04:27","67296","15.14178467","0.0016809","97.499","88.1097","133.2329","227.031","0","999","359","0.00076438","0.00013944","0","3761749","0 SPACEBEE-163","1 55089U 23001CJ  23026.33642439  .00013944  00000-0  76438-3 0  9992","2 55089  97.4990  88.1097 0016809 133.2329 227.0310 15.14178467  3593","2023-001CJ","55089","6901.611","95.101","535.077","511.875","0"
"GENERATED VIA SPACETRACK.ORG API","18 SPCS","55089","SPACEBEE-163","PAYLOAD","U","23001CJ","2023-01-26 12:49:56","102304","15.1418611","0.0016806","97.499","88.3049","132.6091","227.6562","0","999","362","0.00085488","0.00015609","0","3761951","0 SPACEBEE-163","1 55089U 23001CJ  23026.53467711  .00015609  00000-0  85488-3 0  9997","2 55089  97.4990  88.3049 0016806 132.6091 227.6562 15.14186110  3621","2023-001CJ","55089","6901.588","95.101","535.051","511.854","0"
"GENERATED VIA SPACETRACK.ORG API","18 SPCS","55089","SPACEBEE-163","PAYLOAD","U","23001CJ","2023-01-27 12:37:20","290656","15.14214327","0.0016804","97.499","89.2814","129.5361","230.7359","0","999","377","0.00081036","0.00014803","0","3762956","0 SPACEBEE-163","1 55089U 23001CJ  23027.52592929  .00014803  00000-0  81036-3 0  9997","2 55089  97.4990  89.2814 0016804 129.5361 230.7359 15.14214327  3771","2023-001CJ","55089","6901.502","95.099","534.964","511.770","0"
"GENERATED VIA SPACETRACK.ORG API","18 SPCS","55089","SPACEBEE-163","PAYLOAD","U","23001CJ","2023-01-27 14:12:29","841120","15.14216693","0.00168","97.499","89.3465","129.2982","230.9742","0","999","378","0.00081734","0.00014933","0","3762926","0 SPACEBEE-163","1 55089U 23001CJ  23027.59201205  .00014933  00000-0  81734-3 0  9997","2 55089  97.4990  89.3465 0016800 129.2982 230.9742 15.14216693  3783","2023-001CJ","55089","6901.495","95.099","534.954","511.765","0"
"GENERATED VIA SPACETRACK.ORG API","18 SPCS","55089","SPACEBEE-163","PAYLOAD","U","23001CJ","2023-01-27 20:33:07","981632","15.14224294","0.0016796","97.4991","89.6069","128.4241","231.8502","0","999","382","0.00081242","0.00014845","0","3763218","0 SPACEBEE-163","1 55089U 23001CJ  23027.85634238  .00014845  00000-0  81242-3 0  9998","2 55089  97.4991  89.6069 0016796 128.4241 231.8502 15.14224294  3825","2023-001CJ","55089","6901.472","95.098","534.928","511.745","0"
"GENERATED VIA SPACETRACK.ORG API","18 SPCS","55089","SPACEBEE-163","PAYLOAD","U","23001CJ","2023-01-28 12:24:42","795936","15.14243029","0.0016831","97.4992","90.2581","126.2704","234.0086","0","999","392","0.00076069","0.00013902","0","3763924","0 SPACEBEE-163","1 55089U 23001CJ  23028.51716199  .00013902  00000-0  76069-3 0  9993","2 55089  97.4992  90.2581 0016831 126.2704 234.0086 15.14243029  3923","2023-001CJ","55089","6901.415","95.097","534.895","511.664","0"
"GENERATED VIA SPACETRACK.ORG API","18 SPCS","55089","SPACEBEE-163","PAYLOAD","U","23001CJ","2023-01-28 20:20:29","949504","15.14251797","0.0016844","97.4994","90.5836","125.162","235.1193","0","999","397","0.00072059","0.00013167","0","3764201","0 SPACEBEE-163","1 55089U 23001CJ  23028.84756886  .00013167  00000-0  72059-3 0  9994","2 55089  97.4994  90.5836 0016844 125.1620 235.1193 15.14251797  3977","2023-001CJ","55089","6901.388","95.096","534.878","511.628","0"
"GENERATED VIA SPACETRACK.ORG API","18 SPCS","55089","SPACEBEE-163","PAYLOAD","U","23001CJ","2023-01-28 21:55:39","360864","15.14253574","0.001686","97.4994","90.6488","124.9436","235.3382","0","999","398","0.00071874","0.00013134","0","3764164","0 SPACEBEE-163","1 55089U 23001CJ  23028.91365001  .00013134  00000-0  71874-3 0  9995","2 55089  97.4994  90.6488 0016860 124.9436 235.3382 15.14253574  3989","2023-001CJ","55089","6901.383","95.096","534.883","511.612","0"
"GENERATED VIA SPACETRACK.ORG API","18 SPCS","55089","SPACEBEE-163","PAYLOAD","U","23001CJ","2023-01-29 21:42:59","657760","15.14280006","0.0016923","97.4998","91.6256","121.6098","238.6788","0","999","413","0.00065405","0.00011953","0","3765015","0 SPACEBEE-163","1 55089U 23001CJ  23029.90485715  .00011953  00000-0  65405-3 0  9990","2 55089  97.4998  91.6256 0016923 121.6098 238.6788 15.14280006  4139","2023-001CJ","55089","6901.302","95.095","534.846","511.488","0"
